NORAD_CAT_ID,OBJECT_NAME,OBJECT_TYPE,EPOCH,MEAN_MOTION,ECCENTRICITY,INCLINATION,RA_OF_ASC_NODE,ARG_OF_PERICENTER,MEAN_ANOMALY,BSTAR,MEAN_MOTION_DOT,MEAN_MOTION_DDOT,TLE_LINE0,TLE_LINE1,TLE_LINE2,SEMIMAJOR_AXIS,PERIOD,APOGEE,PERIGEE,DECAYED
53731.0,STARLINK-4636,PAYLOAD,2023-09-09 13:52:48,15.08838075,0.0001331,53.2189,28.8979,81.2076,278.9067,5.8014e-05,6.35e-06,0.0,0 STARLINK-4636,1 53731U 22107AH  23252.57834213  .00000635  00000-0  58014-4 0  9994,2 53731  53.2189  28.8979 0001331  81.2076 278.9067 15.08838075 56885,6917.886,95.438,540.672,538.831,0.0
53731.0,STARLINK-4636,PAYLOAD,2023-09-10 13:43:35,15.08845314,0.0001377,53.2194,24.4381,86.8524,273.2626,0.00011078,1.476e-05,0.0,0 STARLINK-4636,1 53731U 22107AH  23253.57193639  .00001476  00000-0  11078-3 0  9997,2 53731  53.2194  24.4381 0001377  86.8524 273.2626 15.08845314 57030,6917.864,95.437,540.682,538.777,0.0
53731.0,STARLINK-4636,PAYLOAD,2023-09-10 15:18:58,15.08849948,0.000137,53.2198,24.1404,86.1505,273.9643,6.0242e-05,6.71e-06,0.0,0 STARLINK-4636,1 53731U 22107AH  23253.63817488  .00000671  00000-0  60242-4 0  9993,2 53731  53.2198  24.1404 0001370  86.1505 273.9643 15.08849948 56416,6917.85,95.437,540.663,538.767,0.0
53731.0,STARLINK-4636,PAYLOAD,2023-09-11 13:34:22,15.08840454,0.0001464,53.2197,19.9775,90.9803,269.1357,5.1363e-05,5.3e-06,0.0,0 STARLINK-4636,1 53731U 22107AH  23254.56554078  .00000530  00000-0  51363-4 0  9997,2 53731  53.2197  19.9775 0001464  90.9803 269.1357 15.08840454 57183,6917.879,95.438,540.757,538.731,0.0
53731.0,STARLINK-4636,PAYLOAD,2023-09-11 15:09:45,15.08840684,0.0001453,53.2199,19.6804,89.8259,270.2899,4.8943e-05,4.91e-06,0.0,0 STARLINK-4636,1 53731U 22107AH  23254.63178060  .00000491  00000-0  48943-4 0  9994,2 53731  53.2199  19.6804 0001453  89.8259 270.2899 15.08840684 56565,6917.878,95.438,540.748,538.738,0.0
53731.0,STARLINK-4636,PAYLOAD,2023-09-12 13:25:09,15.08846954,0.0001398,53.22,15.5176,91.458,268.6572,7.6023e-05,9.22e-06,0.0,0 STARLINK-4636,1 53731U 22107AH  23255.55913433  .00000922  00000-0  76023-4 0  9996,2 53731  53.2200  15.5176 0001398  91.4580 268.6572 15.08846954 57330,6917.859,95.437,540.691,538.757,0.0
53731.0,STARLINK-4636,PAYLOAD,2023-09-12 15:00:32,15.08850559,0.0001407,53.2199,15.2198,94.1043,266.011,7.8796e-05,9.67e-06,0.0,0 STARLINK-4636,1 53731U 22107AH  23255.62537172  .00000967  00000-0  78796-4 0  9994,2 53731  53.2199  15.2198 0001407  94.1043 266.0110 15.08850559 56710,6917.848,95.437,540.686,538.74,0.0
53731.0,STARLINK-4636,PAYLOAD,2023-09-13 00:32:51,15.08843547,0.0001523,53.2195,13.4355,101.0729,259.0435,8.2659e-05,1.028e-05,0.0,0 STARLINK-4636,1 53731U 22107AH  23256.02281501  .00001028  00000-0  82659-4 0  9993,2 53731  53.2195  13.4355 0001523 101.0729 259.0435 15.08843547 56776,6917.87,95.437,540.788,538.681,0.0
53731.0,STARLINK-4636,PAYLOAD,2023-09-13 13:15:55,15.08850447,0.0001447,53.2202,11.0572,98.598,261.5176,0.00011909,1.608e-05,0.0,0 STARLINK-4636,1 53731U 22107AH  23256.55272895  .00001608  00000-0  11909-3 0  9990,2 53731  53.2202  11.0572 0001447  98.5980 261.5176 15.08850447 57480,6917.848,95.437,540.714,538.712,0.0
53731.0,STARLINK-4636,PAYLOAD,2023-09-13 14:51:18,15.08850455,0.0001467,53.2199,10.7592,89.5937,270.5223,0.00011788,1.589e-05,0.0,0 STARLINK-4636,1 53731U 22107AH  23256.61896932  .00001589  00000-0  11788-3 0  9994,2 53731  53.2199  10.7592 0001467  89.5937 270.5223 15.08850455 57490,6917.848,95.437,540.728,538.699,0.0
53731.0,STARLINK-4636,PAYLOAD,2023-09-14 00:23:38,15.08842383,0.0001657,53.2191,8.9738,71.6332,288.484,5.4745e-05,5.83e-06,0.0,0 STARLINK-4636,1 53731U 22107AH  23257.01641567  .00000583  00000-0  54745-4 0  9995,2 53731  53.2191   8.9738 0001657  71.6332 288.4840 15.08842383 56926,6917.873,95.437,540.884,538.592,0.0
53731.0,STARLINK-4636,PAYLOAD,2023-09-14 08:20:36,15.08813673,0.0001395,53.2201,7.4887,83.9933,276.1218,-0.00021836,-3.759e-05,0.0,0 STARLINK-4636,1 53731U 22107AH  23257.34764309 -.00003759  00000-0 -21836-3 0  9995,2 53731  53.2201   7.4887 0001395  83.9933 276.1218 15.08813673 56977,6917.961,95.439,540.791,538.861,0.0
53731.0,STARLINK-4636,PAYLOAD,2023-09-14 13:06:45,15.08817174,0.0001572,53.2206,6.5973,87.0594,273.0578,-0.00017434,-3.06e-05,0.0,0 STARLINK-4636,1 53731U 22107AH  23257.54636263 -.00003060  00000-0 -17434-3 0  9998,2 53731  53.2206   6.5973 0001572  87.0594 273.0578 15.08817174 57632,6917.95,95.439,540.903,538.728,0.0
53731.0,STARLINK-4636,PAYLOAD,2023-09-14 16:17:31,15.08820469,0.0001495,53.2202,6.002,82.6277,277.4885,-0.0001439,-2.576e-05,0.0,0 STARLINK-4636,1 53731U 22107AH  23257.67884122 -.00002576  00000-0 -14390-3 0  9990,2 53731  53.2202   6.0020 0001495  82.6277 277.4885 15.08820469 57022,6917.94,95.439,540.839,538.771,0.0
53731.0,STARLINK-4636,PAYLOAD,2023-09-15 06:35:59,15.08824764,9.32e-05,53.2185,3.3212,72.2282,287.8812,5.4787e-05,5.84e-06,0.0,0 STARLINK-4636,1 53731U 22107AH  23258.27499718  .00000584  00000-0  54787-4 0  9990,2 53731  53.2185   3.3212 0000932  72.2282 287.8812 15.08824764 57118,6917.927,95.439,540.437,539.147,0.0
53731.0,STARLINK-4636,PAYLOAD,2023-09-15 12:57:31,15.08840572,0.000142,53.2196,2.1392,75.486,284.629,-4.5876e-07,-2.95e-06,0.0,0 STARLINK-4636,1 53731U 22107AH  23258.53995070 -.00000295  00000-0 -45876-6 0  9993,2 53731  53.2196   2.1392 0001420  75.4860 284.6290 15.08840572 57789,6917.879,95.438,540.726,538.761,0.0
53731.0,STARLINK-4636,PAYLOAD,2023-09-15 14:32:54,15.08846109,0.0001558,53.22,1.841,72.9295,287.1868,5.3054e-05,5.57e-06,0.0,0 STARLINK-4636,1 53731U 22107AH  23258.60618693  .00000557  00000-0  53054-4 0  9998,2 53731  53.2200   1.8410 0001558  72.9295 287.1868 15.08846109 57161,6917.862,95.437,540.805,538.649,0.0
53731.0,STARLINK-4636,PAYLOAD,2023-09-16 08:02:09,15.08826983,0.0001366,53.2193,358.5682,70.1535,289.9604,0.00034267,5.168e-05,0.0,0 STARLINK-4636,1 53731U 22107AH  23259.33483321  .00005168  00000-0  34267-3 0  9994,2 53731  53.2193 358.5682 0001366  70.1535 289.9604 15.08826983 57277,6917.92,95.438,540.73,538.84,0.0
53731.0,STARLINK-4636,PAYLOAD,2023-09-16 12:48:18,15.08833582,0.0001543,53.2201,357.6764,75.0945,285.0218,0.00030105,4.506e-05,0.0,0 STARLINK-4636,1 53731U 22107AH  23259.53355186  .00004506  00000-0  30105-3 0  9995,2 53731  53.2201 357.6764 0001543  75.0945 285.0218 15.08833582 57938,6917.9,95.438,540.832,538.698,0.0
53731.0,STARLINK-4636,PAYLOAD,2023-09-16 14:23:41,15.08836681,0.0001421,53.2193,357.3795,71.2095,288.9051,0.00031295,4.696e-05,0.0,0 STARLINK-4636,1 53731U 22107AH  23259.59978944  .00004696  00000-0  31295-3 0  9995,2 53731  53.2193 357.3795 0001421  71.2095 288.9051 15.08836681 57310,6917.891,95.438,540.739,538.773,0.0
53731.0,STARLINK-4636,PAYLOAD,2023-09-17 12:39:05,15.08853669,0.0001317,53.2201,353.2147,86.0691,274.0452,6.584e-05,7.6e-06,0.0,0 STARLINK-4636,1 53731U 22107AH  23260.52714432  .00000760  00000-0  65840-4 0  9992,2 53731  53.2201 353.2147 0001317  86.0691 274.0452 15.08853669 58087,6917.839,95.437,540.615,538.793,0.0
53731.0,STARLINK-4636,PAYLOAD,2023-09-17 23:46:47,15.08852974,0.0001426,53.2197,351.1346,70.048,290.0666,3.4496e-05,2.61e-06,0.0,0 STARLINK-4636,1 53731U 22107AH  23260.99082366  .00000261  00000-0  34496-4 0  9996,2 53731  53.2197 351.1346 0001426  70.0480 290.0666 15.08852974 57520,6917.841,95.437,540.692,538.719,0.0
53731.0,STARLINK-4636,PAYLOAD,2023-09-18 10:54:29,15.08845065,0.0001518,53.2204,349.0541,80.0786,280.0378,4.0757e-05,3.61e-06,0.0,0 STARLINK-4636,1 53731U 22107AH  23261.45450765  .00000361  00000-0  40757-4 0  9998,2 53731  53.2204 349.0541 0001518  80.0786 280.0378 15.08845065 57593,6917.865,95.437,540.78,538.68,0.0
53731.0,STARLINK-4636,PAYLOAD,2023-09-18 12:29:52,15.08849803,0.0001563,53.2214,348.756,89.6176,270.4996,4.0134e-05,3.51e-06,0.0,0 STARLINK-4636,1 53731U 22107AH  23261.52074458  .00000351  00000-0  40134-4 0  9995,2 53731  53.2214 348.7560 0001563  89.6176 270.4996 15.08849803 58234,6917.85,95.437,540.797,538.634,0.0
53731.0,STARLINK-4636,PAYLOAD,2023-09-19 15:31:24,15.08861545,0.0001347,53.2187,343.6973,105.9079,254.2061,0.00021236,3.095e-05,0.0,0 STARLINK-4636,1 53731U 22107AH  23262.64681204  .00003095  00000-0  21236-3 0  9991,2 53731  53.2187 343.6973 0001347 105.9079 254.2061 15.08861545 57777,6917.815,95.436,540.611,538.748,0.0
53731.0,STARLINK-4636,PAYLOAD,2023-09-20 12:11:27,15.08823994,0.0001419,53.2189,339.8358,79.2494,280.8658,-0.00019659,-3.414e-05,0.0,0 STARLINK-4636,1 53731U 22107AH  23263.50795624 -.00003414  00000-0 -19659-3 0  9992,2 53731  53.2189 339.8358 0001419  79.2494 280.8658 15.08823994 57905,6917.929,95.439,540.776,538.813,0.0
53731.0,STARLINK-4636,PAYLOAD,2023-09-21 10:26:50,15.08844985,0.0001396,53.2188,335.6719,78.2189,281.896,0.00011334,1.517e-05,0.0,0 STARLINK-4636,1 53731U 22107AH  23264.43531056  .00001517  00000-0  11334-3 0  9994,2 53731  53.2188 335.6719 0001396  78.2189 281.8960 15.08844985 58049,6917.865,95.437,540.696,538.764,0.0
53731.0,STARLINK-4636,PAYLOAD,2023-09-21 21:34:33,15.08841512,0.0001494,53.2189,333.5905,73.9547,286.161,0.00023635,3.476e-05,0.0,0 STARLINK-4636,1 53731U 22107AH  23264.89899387  .00003476  00000-0  23635-3 0  9991,2 53731  53.2189 333.5905 0001494  73.9547 286.1610 15.08841512 58743,6917.876,95.437,540.774,538.707,0.0
53731.0,STARLINK-4636,PAYLOAD,2023-09-22 03:56:05,15.08839779,0.0001583,53.2196,332.402,79.1009,281.0162,0.00029212,4.364e-05,0.0,0 STARLINK-4636,1 53731U 22107AH  23265.16395676  .00004364  00000-0  29212-3 0  9998,2 53731  53.2196 332.4020 0001583  79.1009 281.0162 15.08839779 58150,6917.881,95.438,540.841,538.651,0.0
53731.0,STARLINK-4636,PAYLOAD,2023-09-22 11:53:01,15.08841779,0.0001557,53.2187,330.9147,72.594,287.5222,0.00032184,4.838e-05,0.0,0 STARLINK-4636,1 53731U 22107AH  23265.49515669  .00004838  00000-0  32184-3 0  9998,2 53731  53.2187 330.9147 0001557  72.5940 287.5222 15.08841779 58831,6917.875,95.437,540.817,538.663,0.0
